{
  "type": "FeatureCollection",
  "features": [
    {
      "type": "Feature",
      "properties": {
        "norad_id": 40069,
        "name": "METEOR-M 2",
        "group": "weather",
        "lat": -15.685494632840676,
        "lon": -25.617034415486998,
        "alt_km": 829.0045194755448,
        "timestamp": "2025-12-20T16:47:35.933897+00:00",
        "meta_object_name": "METEOR-M 2",
        "meta_object_id": "2014-037A",
        "meta_epoch": "2025-12-20T11:47:58.211808",
        "meta_mean_motion": 14.21390167,
        "meta_eccentricity": 0.0005373,
        "meta_inclination": 98.4901,
        "meta_ra_of_asc_node": 331.7789,
        "meta_arg_of_pericenter": 185.2112,
        "meta_mean_anomaly": 174.901,
        "meta_ephemeris_type": 0,
        "meta_classification_type": "U",
        "meta_norad_cat_id": 40069,
        "meta_element_set_no": 999,
        "meta_rev_at_epoch": 59393,
        "meta_bstar": 0.00017322,
        "meta_mean_motion_dot": 3.36e-06,
        "meta_mean_motion_ddot": 0,
        "tle_line1": "1 40069U 14037A   25354.49164597  .00000336  00000+0  17322-3 0  9997",
        "tle_line2": "2 40069  98.4901 331.7789 0005373 185.2112 174.9010 14.21390167593933"
      },
      "geometry": {
        "type": "Point",
        "coordinates": [
          -25.617034415486998,
          -15.685494632840676
        ]
      }
    },
    {
      "type": "Feature",
      "properties": {
        "norad_id": 40267,
        "name": "HIMAWARI-8",
        "group": "weather",
        "lat": 0.018375664794056494,
        "lon": 122.08679373540811,
        "alt_km": 35789.93228910618,
        "timestamp": "2025-12-20T16:47:35.933908+00:00",
        "meta_object_name": "HIMAWARI-8",
        "meta_object_id": "2014-060A",
        "meta_epoch": "2025-12-20T07:03:06.613920",
        "meta_mean_motion": 1.00271139,
        "meta_eccentricity": 8.63e-05,
        "meta_inclination": 0.0401,
        "meta_ra_of_asc_node": 140.653,
        "meta_arg_of_pericenter": 155.1374,
        "meta_mean_anomaly": 39.7856,
        "meta_ephemeris_type": 0,
        "meta_classification_type": "U",
        "meta_norad_cat_id": 40267,
        "meta_element_set_no": 999,
        "meta_rev_at_epoch": 4096,
        "meta_bstar": 0,
        "meta_mean_motion_dot": -2.51e-06,
        "meta_mean_motion_ddot": 0,
        "tle_line1": "1 40267U 14060A   25354.29382655 -.00000251  00000+0  00000+0 0  9996",
        "tle_line2": "2 40267   0.0401 140.6530 0000863 155.1374  39.7856  1.00271139 40969"
      },
      "geometry": {
        "type": "Point",
        "coordinates": [
          122.08679373540811,
          0.018375664794056494
        ]
      }
    },
    {
      "type": "Feature",
      "properties": {
        "norad_id": 40367,
        "name": "FENGYUN 2G",
        "group": "weather",
        "lat": 0.539537545168316,
        "lon": 80.68155177387477,
        "alt_km": 35799.787206115456,
        "timestamp": "2025-12-20T16:47:35.933935+00:00",
        "meta_object_name": "FENGYUN 2G",
        "meta_object_id": "2014-090A",
        "meta_epoch": "2025-12-20T04:51:38.536704",
        "meta_mean_motion": 1.00261452,
        "meta_eccentricity": 0.0002676,
        "meta_inclination": 5.1862,
        "meta_ra_of_asc_node": 75.0126,
        "meta_arg_of_pericenter": 203.4255,
        "meta_mean_anomaly": 342.8023,
        "meta_ephemeris_type": 0,
        "meta_classification_type": "U",
        "meta_norad_cat_id": 40367,
        "meta_element_set_no": 999,
        "meta_rev_at_epoch": 4020,
        "meta_bstar": 0,
        "meta_mean_motion_dot": -2.79e-06,
        "meta_mean_motion_ddot": 0,
        "tle_line1": "1 40367U 14090A   25354.20252936 -.00000279  00000+0  00000+0 0  9999",
        "tle_line2": "2 40367   5.1862  75.0126 0002676 203.4255 342.8023  1.00261452 40206"
      },
      "geometry": {
        "type": "Point",
        "coordinates": [
          80.68155177387477,
          0.539537545168316
        ]
      }
    },
    {
      "type": "Feature",
      "properties": {
        "norad_id": 40732,
        "name": "METEOSAT-11 (MSG-4)",
        "group": "weather",
        "lat": -2.730194263610914,
        "lon": -9.360332644127247,
        "alt_km": 35789.75082182465,
        "timestamp": "2025-12-20T16:47:35.933949+00:00",
        "meta_object_name": "METEOSAT-11 (MSG-4)",
        "meta_object_id": "2015-034A",
        "meta_epoch": "2025-12-20T06:25:40.200096",
        "meta_mean_motion": 1.00269846,
        "meta_eccentricity": 8.43e-05,
        "meta_inclination": 2.7549,
        "meta_ra_of_asc_node": 71.982,
        "meta_arg_of_pericenter": 136.1548,
        "meta_mean_anomaly": 346.5872,
        "meta_ephemeris_type": 0,
        "meta_classification_type": "U",
        "meta_norad_cat_id": 40732,
        "meta_element_set_no": 999,
        "meta_rev_at_epoch": 542,
        "meta_bstar": 0,
        "meta_mean_motion_dot": 8.3e-07,
        "meta_mean_motion_ddot": 0,
        "tle_line1": "1 40732U 15034A   25354.26782639  .00000083  00000+0  00000+0 0  9990",
        "tle_line2": "2 40732   2.7549  71.9820 0000843 136.1548 346.5872  1.00269846  5427"
      },
      "geometry": {
        "type": "Point",
        "coordinates": [
          -9.360332644127247,
          -2.730194263610914
        ]
      }
    },
    {
      "type": "Feature",
      "properties": {
        "norad_id": 41105,
        "name": "ELEKTRO-L 2",
        "group": "weather",
        "lat": -6.027329459766969,
        "lon": -33.10749081492445,
        "alt_km": 35776.09282554493,
        "timestamp": "2025-12-20T16:47:35.933962+00:00",
        "meta_object_name": "ELEKTRO-L 2",
        "meta_object_id": "2015-074A",
        "meta_epoch": "2025-12-20T01:10:35.962176",
        "meta_mean_motion": 1.00272605,
        "meta_eccentricity": 0.00035244,
        "meta_inclination": 6.243,
        "meta_ra_of_asc_node": 72.7416,
        "meta_arg_of_pericenter": 209.3855,
        "meta_mean_anomaly": 169.9333,
        "meta_ephemeris_type": 0,
        "meta_classification_type": "U",
        "meta_norad_cat_id": 41105,
        "meta_element_set_no": 999,
        "meta_rev_at_epoch": 3671,
        "meta_bstar": 0,
        "meta_mean_motion_dot": -9.8e-07,
        "meta_mean_motion_ddot": 0,
        "tle_line1": "1 41105U 15074A   25354.04902734 -.00000098  00000+0  00000+0 0  9992",
        "tle_line2": "2 41105   6.2430  72.7416 0003524 209.3855 169.9333  1.00272605 36715"
      },
      "geometry": {
        "type": "Point",
        "coordinates": [
          -33.10749081492445,
          -6.027329459766969
        ]
      }
    },
    {
      "type": "Feature",
      "properties": {
        "norad_id": 41752,
        "name": "INSAT-3DR",
        "group": "weather",
        "lat": -0.03276409389353227,
        "lon": 55.50510599013535,
        "alt_km": 35834.54713436872,
        "timestamp": "2025-12-20T16:47:35.933974+00:00",
        "meta_object_name": "INSAT-3DR",
        "meta_object_id": "2016-054A",
        "meta_epoch": "2025-12-20T03:18:35.620128",
        "meta_mean_motion": 1.00271606,
        "meta_eccentricity": 0.00141282,
        "meta_inclination": 0.1099,
        "meta_ra_of_asc_node": 86.4008,
        "meta_arg_of_pericenter": 185.1438,
        "meta_mean_anomaly": 301.0691,
        "meta_ephemeris_type": 0,
        "meta_classification_type": "U",
        "meta_norad_cat_id": 41752,
        "meta_element_set_no": 999,
        "meta_rev_at_epoch": 3402,
        "meta_bstar": 0,
        "meta_mean_motion_dot": -5.3e-07,
        "meta_mean_motion_ddot": 0,
        "tle_line1": "1 41752U 16054A   25354.13791227 -.00000053  00000+0  00000+0 0  9993",
        "tle_line2": "2 41752   0.1099  86.4008 0014128 185.1438 301.0691  1.00271606 34024"
      },
      "geometry": {
        "type": "Point",
        "coordinates": [
          55.50510599013535,
          -0.03276409389353227
        ]
      }
    },
    {
      "type": "Feature",
      "properties": {
        "norad_id": 41836,
        "name": "HIMAWARI-9",
        "group": "weather",
        "lat": 0.03852817085747165,
        "lon": 122.1900328777277,
        "alt_km": 35789.937881360434,
        "timestamp": "2025-12-20T16:47:35.933987+00:00",
        "meta_object_name": "HIMAWARI-9",
        "meta_object_id": "2016-064A",
        "meta_epoch": "2025-12-20T07:03:06.613920",
        "meta_mean_motion": 1.00274531,
        "meta_eccentricity": 0.0001523,
        "meta_inclination": 0.0185,
        "meta_ra_of_asc_node": 0.0735,
        "meta_arg_of_pericenter": 346.3571,
        "meta_mean_anomaly": 349.2305,
        "meta_ephemeris_type": 0,
        "meta_classification_type": "U",
        "meta_norad_cat_id": 41836,
        "meta_element_set_no": 999,
        "meta_rev_at_epoch": 3341,
        "meta_bstar": 0,
        "meta_mean_motion_dot": 0,
        "meta_mean_motion_ddot": 0,
        "tle_line1": "1 41836U 16064A   25354.29382655  .00000000  00000+0  00000+0 0  9996",
        "tle_line2": "2 41836   0.0185   0.0735 0001523 346.3571 349.2305  1.00274531 33413"
      },
      "geometry": {
        "type": "Point",
        "coordinates": [
          122.1900328777277,
          0.03852817085747165
        ]
      }
    }
  ]
}